COSMOS 2433 (720)       
1 32275U 07052A   22185.97852039 -.00000038  00000+0  00000+0 0  9994
2 32275  66.0846   4.0878 0001210 173.2212 212.2204  2.13104415114347
COSMOS 2432 (719)       
1 32276U 07052B   22186.23467369 -.00000037  00000+0  00000+0 0  9992
2 32276  66.0937   4.1820 0008778 342.4579 187.7775  2.13103402114343
COSMOS 2434 (721)       
1 32393U 07065A   22183.50882635  .00000046  00000+0  00000+0 0  9999
2 32393  64.3808 240.9127 0001250 126.0631  54.3264  2.13103356112993
COSMOS 2436 (723)       
1 32395U 07065C   22184.50240236  .00000045  00000+0  00000+0 0  9996
2 32395  64.3889 240.9354 0014503 353.8901   4.6155  2.13103088112945
COSMOS 2456 (730)       
1 36111U 09070A   22184.72837753  .00000031  00000+0  00000+0 0  9999
2 36111  64.3571 120.4955 0005524 308.9747 252.3595  2.13099280 97685
COSMOS 2457 (733)       
1 36112U 09070B   22186.18093878  .00000032  00000+0  00000+0 0  9995
2 36112  64.3425 120.3209 0003969 187.5468 175.5612  2.13101483 97727
COSMOS 2461 (735)       
1 36401U 10007B   22185.92987472 -.00000039  00000+0  00000+0 0  9999
2 36401  65.9693   2.9261 0020764  13.5357 191.9877  2.13103695 96060
COSMOS 2460 (732)       
1 36402U 10007C   22185.04509341 -.00000043  00000+0  00000+0 0  9993
2 36402  65.9549   2.9053 0002701  81.3048 114.0172  2.13106318 96048
COSMOS 2464 (736)       
1 37139U 10041C   22185.80406994  .00000048  00000+0  00000+0 0  9997
2 37139  63.9802 239.9017 0027968   8.0310 351.2964  2.13100807 92113
COSMOS 2476 (744)       
1 37867U 11064A   22186.03471207  .00000035  00000+0  00000+0 0  9992
2 37867  64.6461 121.8138 0022420 240.5202 148.6344  2.13101775 83063
COSMOS 2477 (745)       
1 37868U 11064B   22185.52524627  .00000035  00000+0  00000+0 0  9991
2 37868  64.6536 121.8961 0019906 241.8059 294.6112  2.13101685 83009
COSMOS 2475 (743)       
1 37869U 11064C   22185.14390880  .00000035  00000+0  00000+0 0  9992
2 37869  64.6620 121.9173 0024477 258.3421 303.5572  2.13102030 83000
COSMOS 2485 (747)       
1 39155U 13019A   22185.61588170  .00000036  00000+0  00000+0 0  9998
2 39155  64.8099 122.2604 0022783 236.4166 235.8206  2.13101966 71528
COSMOS 2492 (754)       
1 39620U 14012A   22185.89386185 -.00000039  00000+0  00000+0 0  9995
2 39620  65.8421   2.5559 0011752 334.2724  25.6896  2.13103161 64481
COSMOS 2500 (755)       
1 40001U 14032A   22186.53729837 -.00000037  00000+0  00000+0 0  9997
2 40001  65.7805   2.3934 0005452 178.0727 174.1298  2.13102363 62705
COSMOS 2501 (702K)      
1 40315U 14075A   22185.63783899  .00000046  00000+0  00000+0 0  9999
2 40315  63.6879 240.5690 0018950 210.2658 339.9832  2.13101539 59092
COSMOS 2514 (751)       
1 41330U 16008A   22185.83852144 -.00000040  00000+0  00000+0 0  9992
2 41330  65.5811   2.1050 0009206 197.9022 162.0890  2.13102867 49867
COSMOS 2516 (753)       
1 41554U 16032A   22185.58755765  .00000046  00000+0  00000+0 0  9995
2 41554  63.9136 240.8523 0014687 215.4153 215.1187  2.13106436 47462
COSMOS 2522 (752)       
1 42939U 17055A   22185.78844983  .00000046  00000+0  00000+0 0  9992
2 42939  64.1472 241.2451 0009354 241.8510 199.3150  2.13102165 37227
COSMOS 2527 (756)       
1 43508U 18053A   22186.28214741  .00000036  00000+0  00000+0 0  9992
2 43508  64.9723 122.2409 0008970 240.6687 251.3473  2.13102490 31528
COSMOS 2529 (757)       
1 43687U 18086A   22185.73735306  .00000046  00000+0  00000+0 0  9991
2 43687  64.3616 241.5674 0010783 262.8809  94.6147  2.13102193 28529
COSMOS 2534 (758)       
1 44299U 19030A   22182.84413874  .00000047  00000+0  00000+0 0  9994
2 44299  64.4342 241.5520 0012940 282.8916 149.5901  2.13102037 24110
COSMOS 2544 (759)       
1 44850U 19088A   22185.81555697  .00000037  00000+0  16595+1 0  9996
2 44850  64.9584 122.1090 0013899 263.6313 273.8880  2.13102292 19949
COSMOS 2545 (760)       
1 45358U 20018A   22185.55952061 -.00000043  00000+0  00000+0 0  9993
2 45358  64.9171   2.7080 0006421 242.1606 308.3817  2.13102592 17896
COSMOS 2547 (705K)      
1 46805U 20075A   22186.51108431  .00000051  00000+0  00000+0 0  9993
2 46805  64.6585 240.8575 0007954 244.1648 169.2361  2.13103195 13168
